[{"OBJECT_NAME":"UTMN 2 (RS27S)","OBJECT_ID":"2023-091AP","EPOCH":"2026-03-09T23:09:07.917408","MEAN_MOTION":15.29495965,"ECCENTRICITY":0.00097379,"INCLINATION":97.5194,"RA_OF_ASC_NODE":134.949,"ARG_OF_PERICENTER":76.0788,"MEAN_ANOMALY":284.1534,"EPHEMERIS_TYPE":0,"CLASSIFICATION_TYPE":"U","NORAD_CAT_ID":57203,"ELEMENT_SET_NO":999,"REV_AT_EPOCH":14936,"BSTAR":0.00056135701,"MEAN_MOTION_DOT":0.00016013,"MEAN_MOTION_DDOT":0},{"OBJECT_NAME":"STARLINK-31830","OBJECT_ID":"2024-091S","EPOCH":"2026-03-09T07:20:07.250208","MEAN_MOTION":15.3019125,"ECCENTRICITY":0.00011634,"INCLINATION":53.1627,"RA_OF_ASC_NODE":28.808,"ARG_OF_PERICENTER":84.9013,"MEAN_ANOMALY":275.212,"EPHEMERIS_TYPE":0,"CLASSIFICATION_TYPE":"U","NORAD_CAT_ID":59769,"ELEMENT_SET_NO":999,"REV_AT_EPOCH":10294,"BSTAR":1.7515982e-5,"MEAN_MOTION_DOT":1.6e-6,"MEAN_MOTION_DDOT":0}]
